{
    "links": {
        "self": "http://www.neowsapp.com/rest/v1/neo/54076936?api_key=iIulBulltgU6a56xZRHN4H3l9WmuAYTsLGpBGhQ2"
    },
    "id": "54076936",
    "neo_reference_id": "54076936",
    "name": "(2020 UY5)",
    "designation": "2020 UY5",
    "nasa_jpl_url": "http://ssd.jpl.nasa.gov/sbdb.cgi?sstr=54076936",
    "absolute_magnitude_h": 25.484,
    "estimated_diameter": {
        "kilometers": {
            "estimated_diameter_min": 0.0212693872,
            "estimated_diameter_max": 0.0475597955
        },
        "meters": {
            "estimated_diameter_min": 21.2693871578,
            "estimated_diameter_max": 47.5597955247
        },
        "miles": {
            "estimated_diameter_min": 0.0132161804,
            "estimated_diameter_max": 0.0295522777
        },
        "feet": {
            "estimated_diameter_min": 69.7814561629,
            "estimated_diameter_max": 156.0360795492
        }
    },
    "is_potentially_hazardous_asteroid": false,
    "close_approach_data": [
        {
            "close_approach_date": "2020-10-26",
            "close_approach_date_full": "2020-Oct-26 04:21",
            "epoch_date_close_approach": 1603686060000,
            "relative_velocity": {
                "kilometers_per_second": "10.0028846838",
                "kilometers_per_hour": "36010.384861622",
                "miles_per_hour": "22375.4527491562"
            },
            "miss_distance": {
                "astronomical": "0.0936496277",
                "lunar": "36.4297051753",
                "kilometers": "14009784.830212999",
                "miles": "8705276.6244534262"
            },
            "orbiting_body": "Earth"
        },
        {
            "close_approach_date": "2021-04-07",
            "close_approach_date_full": "2021-Apr-07 02:19",
            "epoch_date_close_approach": 1617761940000,
            "relative_velocity": {
                "kilometers_per_second": "11.962689676",
                "kilometers_per_hour": "43065.6828336065",
                "miles_per_hour": "26759.3405362484"
            },
            "miss_distance": {
                "astronomical": "0.2622409464",
                "lunar": "102.0117281496",
                "kilometers": "39230687.008224168",
                "miles": "24376818.5388147984"
            },
            "orbiting_body": "Earth"
        },
        {
            "close_approach_date": "2026-10-30",
            "close_approach_date_full": "2026-Oct-30 09:18",
            "epoch_date_close_approach": 1793351880000,
            "relative_velocity": {
                "kilometers_per_second": "14.5576985016",
                "kilometers_per_hour": "52407.7146058025",
                "miles_per_hour": "32564.1157782554"
            },
            "miss_distance": {
                "astronomical": "0.3513914305",
                "lunar": "136.6912664645",
                "kilometers": "52567409.539053035",
                "miles": "32663873.643620483"
            },
            "orbiting_body": "Earth"
        }
    ],
    "orbital_data": {
        "orbit_id": "1",
        "orbit_determination_date": "2020-10-25 18:12:06",
        "first_observation_date": "2020-10-23",
        "last_observation_date": "2020-10-25",
        "data_arc_in_days": 2,
        "observations_used": 19,
        "orbit_uncertainty": "8",
        "minimum_orbit_intersection": ".0921237",
        "jupiter_tisserand_invariant": "5.513",
        "epoch_osculation": "2459146.5",
        "eccentricity": ".08182092985105141",
        "semi_major_axis": "1.121491249906633",
        "inclination": "19.31191897196595",
        "ascending_node_longitude": "210.6555837370475",
        "orbital_period": "433.8027103337228",
        "perihelion_distance": "1.029729793019454",
        "perihelion_argument": "253.426713990139",
        "aphelion_distance": "1.213252706793811",
        "perihelion_time": "2459224.678548992388",
        "mean_anomaly": "295.1219414567318",
        "mean_motion": ".8298703337354747",
        "equinox": "J2000",
        "orbit_class": {
            "orbit_class_type": "AMO",
            "orbit_class_description": "Near-Earth asteroid orbits similar to that of 1221 Amor",
            "orbit_class_range": "1.017 AU < q (perihelion) < 1.3 AU"
        }
    },
    "is_sentry_object": false
}